1 20253U 89077A   26133.48824897 -.00000360  00000-0  00000+0 0  9997
2 20253  12.4314 351.3763 0006530  24.6279 156.7617  1.00272008260215
1 20776U 90079A   26133.75509660  .00000132  00000-0  00000+0 0  9995
2 20776  13.3519 350.0487 0004334  64.9231 121.7091  1.00270482130540
1 22787U 93056A   26133.82543162  .00000132  00000-0  00000+0 0  9990
2 22787  11.8834   3.7471 0008728 358.9001 194.6810  1.00272662118203
1 23467U 95003A   26133.57591743 -.00000010  00000-0  00000+0 0  9996
2 23467   9.7016  13.3490 0003513  37.3713 200.3793  1.00276094114608
1 23967U 96042A   26133.40390983 -.00000263  00000-0  00000+0 0  9990
2 23967  11.0844  17.2754 0005146  99.1784 221.9548  1.00225826109138
1 25544U 98067A   26133.42450845  .00004975  00000-0  97698-4 0  9995
2 25544  51.6312 112.1826 0007529  54.1813 305.9874 15.49204198566361
1 25967U 99063A   26133.10253204 -.00000177  00000-0  00000-0 0  9994
2 25967   9.8479  27.3964 0002972 355.4570 222.1032  1.00269482 96995
1 27168U 02001A   26133.82369829  .00000107  00000-0  00000+0 0  9996
2 27168  11.1393  22.1135 0099429   7.4759 157.4762  1.00275201 32615
1 27607U 02058C   26133.49414855  .00000609  00000-0  89699-4 0  9992
2 27607  64.5522 236.3170 0075641 268.8072  90.4367 14.82971209259318
1 28117U 03057A   26132.68948887 -.00000091  00000-0  00000-0 0  9997
2 28117   8.9372  34.0055 0002576   6.5768 153.5297  1.00272602 82090
1 28899U 05044A   26133.69697505 -.00000247  00000-0  00000+0 0  9994
2 28899   5.0506  43.7377 0002736  11.5731 210.5601  1.00270725 75170
1 30794U 07007B   26133.83869169 -.00000257  00000-0  00000+0 0  9996
2 30794   5.2154  74.1479 0004136 347.0934 207.5192  1.00271895 70352
1 32294U 07056B   26133.53954779  .00000155  00000-0  00000+0 0  9992
2 32294   5.1666  73.9051 0003495 333.6964  43.0178  1.00271334 67856
1 35943U 09054B   26133.85600492  .00000000  00000-0  00000+0 0  9990
2 35943   0.0177  54.0285 0003039   3.8273 184.9225  1.00269206 60961
1 36582U 10021B   26133.82248494  .00000103  00000-0  00000+0 0  9997
2 36582   0.0171 279.2855 0002996 152.7519 108.8610  1.00276599 58612
1 38098U 12011A   26133.83409832 -.00000047  00000-0  00000+0 0  9996
2 38098   0.0149 299.8196 0002260 131.0819 173.0690  1.00278498  6844
1 39034U 12075A   26133.83028499  .00000113  00000-0  00000+0 0  9996
2 39034   0.0734 331.9868 0003634  88.1803 163.0946  1.00271728 48815
1 39215U 13038A   26133.82473830  .00000146  00000-0  00000+0 0  9995
2 39215   2.9951   1.5811 0002452  83.1676 108.6269  1.00269800 43676
1 40296U 14069A   26133.28833243  .00000260  00000-0  00000+0 0  9996
2 40296  63.4429 218.7674 6660923 270.7966  19.5141  2.00588448 84535
1 40931U 15052B   25151.18580175  .00001241  00000-0  78118-4 0  9996
2 40931   6.0006  24.0987 0012733 338.8432  21.1169 14.78805930523159
1 43678U 18084H   26133.82362525  .00001715  00000-0  14199-3 0  9998
2 43678  98.1106 328.5591 0011927 289.7056  70.2879 15.00276430411068
1 43700U 18090A   26133.82491162  .00000158  00000-0  00000+0 0  9993
2 43700   0.0131 272.0629 0001558 175.0833 107.2537  1.00274598 27331
1 43803U 18099AX  26133.63249072  .00010629  00000-0  34067-3 0  9994
2 43803  97.4156 196.3739 0006317  48.8793 311.2993 15.32520936408338
1 44453U 19046A   26132.32666962  .00000030  00000-0  00000-0 0  9997
2 44453  63.1157  55.3791 7065582 274.7652  14.8639  2.00607860 49622
1 44909U 19096E   26133.37073068  .00000014  00000-0  17760-4 0  9990
2 44909  82.5240   2.8443 0216652 225.6057 132.7128 12.79748094297899
1 45254U 20015A   26129.58398470 -.00000079  00000-0  00000-0 0  9999
2 45254  65.5196 323.0603 6870141 278.5797  14.9347  2.00602260 45514
1 52145U 22030A   26133.07825758  .00000275  00000-0  00000+0 0  9994
2 52145  62.6762 144.5626 6774543 272.8783  17.7255  2.00615979 30323
1 57167U 23091B   26010.59363612  .08733485  25619-5  12458-2 0  9993
2 57167  97.4978  91.1570 0009532 282.8011  77.2220 16.34765267141469
1 59112U 24043Q   26133.37741956  .00025296  00000-0  36180-3 0  9993
2 59112  97.5493 281.7198 0005913 330.7378  29.3544 15.56195234122476
1 67291U 25313AV  26133.84946626  .00009041  00000-0  36069-3 0  9990
2 67291  97.3943 209.4410 0010641 114.9956 245.2389 15.25351946 20757
1 26635U 00080A   21013.46269075 0.00000000  00000-0  00000-0 0    09
2 26635   9.2857  29.8038 0014383 186.3086 173.6859  1.00273100    09
1 34810U 09020A   26118.58802400 0.00000000  00000-0  00000-0 0    05
2 34810   3.0809  80.0043 0003222 250.4250 109.5484  1.00270000    01
1 40614U 15022B   25359.93496764 0.00000000  00000-0  00000-0 0    00
2 40614   0.0160 108.2839 0003453 352.8976   7.0980  1.00270000    04
